{
  "type": "FeatureCollection",
  "features": [
    {
      "type": "Feature",
      "properties": {
        "norad_id": 33844,
        "name": "COSMOS 2251 DEB",
        "group": "cosmos-2251-debris",
        "lat": 6.470151152636137,
        "lon": 30.00654323069706,
        "alt_km": 754.6374567014,
        "timestamp": "2025-12-26T05:31:12.899328+00:00",
        "meta_object_name": "COSMOS 2251 DEB",
        "meta_object_id": "1993-036CM",
        "meta_epoch": "2025-12-25T13:17:44.608992",
        "meta_mean_motion": 14.33741262,
        "meta_eccentricity": 0.004722,
        "meta_inclination": 74.0664,
        "meta_ra_of_asc_node": 29.3837,
        "meta_arg_of_pericenter": 47.2297,
        "meta_mean_anomaly": 72.0893,
        "meta_ephemeris_type": 0,
        "meta_classification_type": "U",
        "meta_norad_cat_id": 33844,
        "meta_element_set_no": 999,
        "meta_rev_at_epoch": 87909,
        "meta_bstar": 0.00036056,
        "meta_mean_motion_dot": 9.89e-06,
        "meta_mean_motion_ddot": 0,
        "tle_line1": "1 33844U 93036CM  25359.55398853  .00000989  00000+0  36056-3 0  9991",
        "tle_line2": "2 33844  74.0664  29.3837 0047220  47.2297  72.0893 14.33741262879094"
      },
      "geometry": {
        "type": "Point",
        "coordinates": [
          30.00654323069706,
          6.470151152636137
        ]
      }
    },
    {
      "type": "Feature",
      "properties": {
        "norad_id": 33848,
        "name": "COSMOS 2251 DEB",
        "group": "cosmos-2251-debris",
        "lat": -29.21255866859855,
        "lon": -36.67175483481629,
        "alt_km": 733.0802262272709,
        "timestamp": "2025-12-26T05:31:12.899338+00:00",
        "meta_object_name": "COSMOS 2251 DEB",
        "meta_object_id": "1993-036CR",
        "meta_epoch": "2025-12-25T15:14:41.354304",
        "meta_mean_motion": 14.44151779,
        "meta_eccentricity": 0.0041938,
        "meta_inclination": 74.0324,
        "meta_ra_of_asc_node": 333.6473,
        "meta_arg_of_pericenter": 25.7702,
        "meta_mean_anomaly": 93.0831,
        "meta_ephemeris_type": 0,
        "meta_classification_type": "U",
        "meta_norad_cat_id": 33848,
        "meta_element_set_no": 999,
        "meta_rev_at_epoch": 88017,
        "meta_bstar": 0.0012844,
        "meta_mean_motion_dot": 4.427e-05,
        "meta_mean_motion_ddot": 0,
        "tle_line1": "1 33848U 93036CR  25359.63520086  .00004427  00000+0  12844-2 0  9998",
        "tle_line2": "2 33848  74.0324 333.6473 0041938  25.7702  93.0831 14.44151779880176"
      },
      "geometry": {
        "type": "Point",
        "coordinates": [
          -36.67175483481629,
          -29.21255866859855
        ]
      }
    },
    {
      "type": "Feature",
      "properties": {
        "norad_id": 33892,
        "name": "COSMOS 2251 DEB",
        "group": "cosmos-2251-debris",
        "lat": -31.298236639147554,
        "lon": 67.26949535860572,
        "alt_km": 879.76585281799,
        "timestamp": "2025-12-26T05:31:12.899348+00:00",
        "meta_object_name": "COSMOS 2251 DEB",
        "meta_object_id": "1993-036CV",
        "meta_epoch": "2025-12-25T08:03:07.750368",
        "meta_mean_motion": 14.23378094,
        "meta_eccentricity": 0.0112112,
        "meta_inclination": 73.8025,
        "meta_ra_of_asc_node": 79.0793,
        "meta_arg_of_pericenter": 107.8295,
        "meta_mean_anomaly": 318.5772,
        "meta_ephemeris_type": 0,
        "meta_classification_type": "U",
        "meta_norad_cat_id": 33892,
        "meta_element_set_no": 999,
        "meta_rev_at_epoch": 87134,
        "meta_bstar": 0.00060646,
        "meta_mean_motion_dot": 1.442e-05,
        "meta_mean_motion_ddot": 0,
        "tle_line1": "1 33892U 93036CV  25359.33550637  .00001442  00000+0  60646-3 0  9997",
        "tle_line2": "2 33892  73.8025  79.0793 0112112 107.8295 318.5772 14.23378094871344"
      },
      "geometry": {
        "type": "Point",
        "coordinates": [
          67.26949535860572,
          -31.298236639147554
        ]
      }
    },
    {
      "type": "Feature",
      "properties": {
        "norad_id": 33894,
        "name": "COSMOS 2251 DEB",
        "group": "cosmos-2251-debris",
        "lat": -24.446705574015883,
        "lon": -39.4069561643517,
        "alt_km": 1149.8052769835376,
        "timestamp": "2025-12-26T05:31:12.899358+00:00",
        "meta_object_name": "COSMOS 2251 DEB",
        "meta_object_id": "1993-036CX",
        "meta_epoch": "2025-12-25T15:06:55.116576",
        "meta_mean_motion": 13.2132861,
        "meta_eccentricity": 0.0578594,
        "meta_inclination": 73.7663,
        "meta_ra_of_asc_node": 329.132,
        "meta_arg_of_pericenter": 246.8452,
        "meta_mean_anomaly": 107.0692,
        "meta_ephemeris_type": 0,
        "meta_classification_type": "U",
        "meta_norad_cat_id": 33894,
        "meta_element_set_no": 999,
        "meta_rev_at_epoch": 80878,
        "meta_bstar": 0.00061723,
        "meta_mean_motion_dot": 5.9e-06,
        "meta_mean_motion_ddot": 0,
        "tle_line1": "1 33894U 93036CX  25359.62980459  .00000590  00000+0  61723-3 0  9990",
        "tle_line2": "2 33894  73.7663 329.1320 0578594 246.8452 107.0692 13.21328610808783"
      },
      "geometry": {
        "type": "Point",
        "coordinates": [
          -39.4069561643517,
          -24.446705574015883
        ]
      }
    },
    {
      "type": "Feature",
      "properties": {
        "norad_id": 33896,
        "name": "COSMOS 2251 DEB",
        "group": "cosmos-2251-debris",
        "lat": -6.934988154151577,
        "lon": -45.77724780349945,
        "alt_km": 874.9198299306927,
        "timestamp": "2025-12-26T05:31:12.899372+00:00",
        "meta_object_name": "COSMOS 2251 DEB",
        "meta_object_id": "1993-036CZ",
        "meta_epoch": "2025-12-25T15:10:08.224896",
        "meta_mean_motion": 14.19068816,
        "meta_eccentricity": 0.0127213,
        "meta_inclination": 73.7666,
        "meta_ra_of_asc_node": 133.2772,
        "meta_arg_of_pericenter": 306.8958,
        "meta_mean_anomaly": 67.8616,
        "meta_ephemeris_type": 0,
        "meta_classification_type": "U",
        "meta_norad_cat_id": 33896,
        "meta_element_set_no": 999,
        "meta_rev_at_epoch": 86923,
        "meta_bstar": 0.00066526,
        "meta_mean_motion_dot": 1.479e-05,
        "meta_mean_motion_ddot": 0,
        "tle_line1": "1 33896U 93036CZ  25359.63203964  .00001479  00000+0  66526-3 0  9995",
        "tle_line2": "2 33896  73.7666 133.2772 0127213 306.8958  67.8616 14.19068816869232"
      },
      "geometry": {
        "type": "Point",
        "coordinates": [
          -45.77724780349945,
          -6.934988154151577
        ]
      }
    },
    {
      "type": "Feature",
      "properties": {
        "norad_id": 33899,
        "name": "COSMOS 2251 DEB",
        "group": "cosmos-2251-debris",
        "lat": 73.4786235762555,
        "lon": 165.38774244937255,
        "alt_km": 645.5153759822979,
        "timestamp": "2025-12-26T05:31:12.899394+00:00",
        "meta_object_name": "COSMOS 2251 DEB",
        "meta_object_id": "1993-036DC",
        "meta_epoch": "2025-12-25T04:34:52.061376",
        "meta_mean_motion": 14.61291008,
        "meta_eccentricity": 0.00559701,
        "meta_inclination": 74.0532,
        "meta_ra_of_asc_node": 61.9432,
        "meta_arg_of_pericenter": 120.9342,
        "meta_mean_anomaly": 269.4,
        "meta_ephemeris_type": 0,
        "meta_classification_type": "U",
        "meta_norad_cat_id": 33899,
        "meta_element_set_no": 999,
        "meta_rev_at_epoch": 89021,
        "meta_bstar": 0.00082401732,
        "meta_mean_motion_dot": 4.131e-05,
        "meta_mean_motion_ddot": 0,
        "tle_line1": "1 33899U 93036DC  25359.19088034  .00004131  00000+0  82402-3 0  9997",
        "tle_line2": "2 33899  74.0532  61.9432 0055970 120.9342 269.4000 14.61291008890210"
      },
      "geometry": {
        "type": "Point",
        "coordinates": [
          165.38774244937255,
          73.4786235762555
        ]
      }
    },
    {
      "type": "Feature",
      "properties": {
        "norad_id": 33900,
        "name": "COSMOS 2251 DEB",
        "group": "cosmos-2251-debris",
        "lat": -9.603491122235292,
        "lon": -28.61981254498389,
        "alt_km": 724.0943574707971,
        "timestamp": "2025-12-26T05:31:12.899413+00:00",
        "meta_object_name": "COSMOS 2251 DEB",
        "meta_object_id": "1993-036DD",
        "meta_epoch": "2025-12-25T08:50:54.447072",
        "meta_mean_motion": 14.58390981,
        "meta_eccentricity": 0.0046325,
        "meta_inclination": 74.0196,
        "meta_ra_of_asc_node": 335.7997,
        "meta_arg_of_pericenter": 124.1586,
        "meta_mean_anomaly": 26.0739,
        "meta_ephemeris_type": 0,
        "meta_classification_type": "U",
        "meta_norad_cat_id": 33900,
        "meta_element_set_no": 999,
        "meta_rev_at_epoch": 89220,
        "meta_bstar": 0.00043405,
        "meta_mean_motion_dot": 2.012e-05,
        "meta_mean_motion_ddot": 0,
        "tle_line1": "1 33900U 93036DD  25359.36868573  .00002012  00000+0  43405-3 0  9999",
        "tle_line2": "2 33900  74.0196 335.7997 0046325 124.1586  26.0739 14.58390981892200"
      },
      "geometry": {
        "type": "Point",
        "coordinates": [
          -28.61981254498389,
          -9.603491122235292
        ]
      }
    }
  ]
}